[Satellite]
VERSION=1.1
NAME=STARLINK-1334
NICKNAME=STARLINK-1334
TLE1=1 45556U 20025AB  20141.83334491  .00046676  00000-0  51216-3 0  9994
TLE2=2 45556  52.9983 260.8790 0000993  83.0464 233.8266 15.62777544  5116
STATUS=0
